[{"OBJECT_NAME":"STARLINK-2195","OBJECT_ID":"2021-017BC","EPOCH":"2026-03-09T15:30:48.908160","MEAN_MOTION":15.301962,"ECCENTRICITY":0.0001569,"INCLINATION":53.1613,"RA_OF_ASC_NODE":217.4753,"ARG_OF_PERICENTER":60.3048,"MEAN_ANOMALY":299.8109,"EPHEMERIS_TYPE":0,"CLASSIFICATION_TYPE":"U","NORAD_CAT_ID":47772,"ELEMENT_SET_NO":999,"REV_AT_EPOCH":27765,"BSTAR":7.8929e-5,"MEAN_MOTION_DOT":1.979e-5,"MEAN_MOTION_DDOT":0},{"OBJECT_NAME":"GEOSCAN 3 (RS92S3)","OBJECT_ID":"2025-155T","EPOCH":"2026-03-09T22:52:10.587648","MEAN_MOTION":15.31696739,"ECCENTRICITY":0.00068078,"INCLINATION":97.4455,"RA_OF_ASC_NODE":37.9971,"ARG_OF_PERICENTER":154.1387,"MEAN_ANOMALY":206.0196,"EPHEMERIS_TYPE":0,"CLASSIFICATION_TYPE":"U","NORAD_CAT_ID":64893,"ELEMENT_SET_NO":999,"REV_AT_EPOCH":6564,"BSTAR":0.00078414081,"MEAN_MOTION_DOT":0.00023985,"MEAN_MOTION_DDOT":0}]
